IRIDIUM 116             
1 43072U 17083C   25359.14253729  .00000086  00000+0  23728-4 0  9991
2 43072  86.3954  34.7460 0002484  90.5233 269.6248 14.34218036419224
IRIDIUM 130             
1 43073U 17083D   25359.18059178  .00000137  00000+0  42002-4 0  9991
2 43073  86.3963  34.9883 0002554  95.4716 264.6771 14.34217954419172
IRIDIUM 151             
1 43074U 17083E   25359.15522221 -.00000014  00000+0 -11902-4 0  9994
2 43074  86.3955  34.7944 0002131  92.3247 267.8193 14.34217386419190
IRIDIUM 134             
1 43075U 17083F   25359.12351513  .00000266  00000+0  87814-4 0  9998
2 43075  86.3959  34.8134 0002358  96.8260 263.3204 14.34219000419157
IRIDIUM 137             
1 43076U 17083G   25359.13619251  .00000236  00000+0  77225-4 0  9998
2 43076  86.3961  34.8974 0002489  82.6640 277.4839 14.34217068419223
IRIDIUM 141             
1 43077U 17083H   25359.19961990 -.00000024  00000+0 -15775-4 0  9994
2 43077  86.3951  34.7110 0002006  96.9284 263.2141 14.34217390419239
IRIDIUM 153             
1 43078U 17083J   25359.08202672  .00000285  00000+0  94670-4 0  9996
2 43078  86.3967   3.2512 0001961  98.7534 261.3884 14.34219916420322
IRIDIUM 131             
1 43079U 17083K   25359.11716590 -.00000006  00000+0 -90554-5 0  9991
2 43079  86.3957  34.9198 0001983  93.4883 266.6540 14.34217559419153
